TURKSAT 1C              
1 23949U 96040B   26066.42336493 -.00000113  00000+0  00000+0 0  9994
2 23949  11.9044  30.9620 0004701 211.9373 148.2054  1.00380656108659
UFO 7 (USA 127)         
1 23967U 96042A   26066.21756929 -.00000232  00000+0  00000+0 0  9995
2 23967  11.0189  17.6265 0002955 106.4936  89.8675  1.00244467108466
INMARSAT 3-F2           
1 24307U 96053A   26066.34021218 -.00000034  00000+0  00000+0 0  9996
2 24307   9.6268  54.9568 0006089 295.4031 188.7996  0.99978355107903
ECHOSTAR 2              
1 24313U 96055A   26066.33868280 -.00000131  00000+0  00000+0 0  9990
2 24313  11.8055  32.3629 0008492  87.1086  64.7747  1.00350202107997
EXPRESS 2               
1 24435U 96058A   26065.81105677 -.00000156  00000+0  00000+0 0  9991
2 24435  14.5787 355.1373 0011198 348.5775 191.0825  1.00334335107789
SL-12 R/B(2)            
1 24438U 96058D   26065.94560808  .00000122  00000+0  00000+0 0  9991
2 24438  14.3994 351.8356 0006835 125.6437  65.7134  1.00237187107816
AFRICASAT-2 (MEASAT-2)  
1 24653U 96063B   26066.58243352  .00000030  00000+0  00000+0 0  9997
2 24653  12.1061  29.7510 0005103 215.8978 201.4068  0.99649258107276
INMARSAT 3-F3           
1 24674U 96070A   26065.78308727 -.00000265  00000+0  00000+0 0  9998
2 24674  10.0978  50.6183 0006768 272.7022 272.0845  1.00001134106883
DFH 3-2                 
1 24798U 97021A   26066.60318083 -.00000361  00000+0  00000+0 0  9997
2 24798  13.4213  14.5569 0003511  93.2566  41.5224  1.00276567105500
AMC-3                   
1 24936U 97050A   26066.37961633 -.00000263  00000+0  00000+0 0  9993
2 24936   7.8967  65.2390 0003535 293.7746 230.7340  1.00272815 51418
USA 134                 
1 25019U 97065A   26065.41433875 -.00000066  00000+0  00000+0 0  9999
2 25019  12.6626  22.4831 0006888 309.1824 229.5099  1.00271299 31921
KUPON                   
1 25045U 97070A   26066.27529709 -.00000261  00000+0  00000+0 0  9998
2 25045  14.5601 355.4080 0005612 308.9126  51.0341  1.00287290103628
INDOSTAR 1              
1 25050U 97071B   26066.01554839  .00000127  00000+0  00000+0 0  9999
2 25050  12.8400  20.7949 0004907 299.9224 240.1956  1.00268842103773
GALAXY 8 (G-8)          
1 25086U 97078A   26065.81227012 -.00000075  00000+0  00000+0 0  9995
2 25086  13.9820  10.6531 0006880  18.7126 151.6557  0.99694444102922
INTELSAT 804 (IS-804)   
1 25110U 97083A   26066.61868681 -.00000065  00000+0  00000+0 0  9990
2 25110  13.0492  18.3828 0008944   9.8680 167.5581  1.00260252103315
INMARSAT 3-F5           
1 25153U 98006B   26065.88005058 -.00000292  00000+0  00000+0 0  9994
2 25153   9.4706  54.2625 0005314 293.7983  79.3459  1.00275632102873
UFO 8 (USA 138)         
1 25258U 98016A   26066.18203580 -.00000202  00000+0  00000+0 0  9996
2 25258  11.0075  23.3730 0007882 272.7475  85.5824  1.00286849102839
