[{"OBJECT_NAME":"TURKSAT 1C","OBJECT_ID":"1996-040B","EPOCH":"2026-03-07T10:09:38.729952","MEAN_MOTION":1.00380656,"ECCENTRICITY":0.00047012,"INCLINATION":11.9044,"RA_OF_ASC_NODE":30.962,"ARG_OF_PERICENTER":211.9373,"MEAN_ANOMALY":148.2054,"EPHEMERIS_TYPE":0,"CLASSIFICATION_TYPE":"U","NORAD_CAT_ID":23949,"ELEMENT_SET_NO":999,"REV_AT_EPOCH":10865,"BSTAR":0,"MEAN_MOTION_DOT":-1.13e-6,"MEAN_MOTION_DDOT":0},{"OBJECT_NAME":"UFO 7 (USA 127)","OBJECT_ID":"1996-042A","EPOCH":"2026-03-07T05:13:17.986656","MEAN_MOTION":1.00244467,"ECCENTRICITY":0.0002955,"INCLINATION":11.0189,"RA_OF_ASC_NODE":17.6265,"ARG_OF_PERICENTER":106.4936,"MEAN_ANOMALY":89.8675,"EPHEMERIS_TYPE":0,"CLASSIFICATION_TYPE":"U","NORAD_CAT_ID":23967,"ELEMENT_SET_NO":999,"REV_AT_EPOCH":10846,"BSTAR":0,"MEAN_MOTION_DOT":-2.32e-6,"MEAN_MOTION_DDOT":0},{"OBJECT_NAME":"INMARSAT 3-F2","OBJECT_ID":"1996-053A","EPOCH":"2026-03-07T08:09:54.332352","MEAN_MOTION":0.99978355,"ECCENTRICITY":0.0006089,"INCLINATION":9.6268,"RA_OF_ASC_NODE":54.9568,"ARG_OF_PERICENTER":295.4031,"MEAN_ANOMALY":188.7996,"EPHEMERIS_TYPE":0,"CLASSIFICATION_TYPE":"U","NORAD_CAT_ID":24307,"ELEMENT_SET_NO":999,"REV_AT_EPOCH":10790,"BSTAR":0,"MEAN_MOTION_DOT":-3.4e-7,"MEAN_MOTION_DDOT":0},{"OBJECT_NAME":"ECHOSTAR 2","OBJECT_ID":"1996-055A","EPOCH":"2026-03-07T08:07:42.193920","MEAN_MOTION":1.00350202,"ECCENTRICITY":0.0008492,"INCLINATION":11.8055,"RA_OF_ASC_NODE":32.3629,"ARG_OF_PERICENTER":87.1086,"MEAN_ANOMALY":64.7747,"EPHEMERIS_TYPE":0,"CLASSIFICATION_TYPE":"U","NORAD_CAT_ID":24313,"ELEMENT_SET_NO":999,"REV_AT_EPOCH":10799,"BSTAR":0,"MEAN_MOTION_DOT":-1.31e-6,"MEAN_MOTION_DDOT":0},{"OBJECT_NAME":"EXPRESS 2","OBJECT_ID":"1996-058A","EPOCH":"2026-03-06T19:27:55.304928","MEAN_MOTION":1.00334335,"ECCENTRICITY":0.00111988,"INCLINATION":14.5787,"RA_OF_ASC_NODE":355.1373,"ARG_OF_PERICENTER":348.5775,"MEAN_ANOMALY":191.0825,"EPHEMERIS_TYPE":0,"CLASSIFICATION_TYPE":"U","NORAD_CAT_ID":24435,"ELEMENT_SET_NO":999,"REV_AT_EPOCH":10778,"BSTAR":0,"MEAN_MOTION_DOT":-1.56e-6,"MEAN_MOTION_DDOT":0},{"OBJECT_NAME":"SL-12 R/B(2)","OBJECT_ID":"1996-058D","EPOCH":"2026-03-06T22:41:40.538112","MEAN_MOTION":1.00237187,"ECCENTRICITY":0.00068355,"INCLINATION":14.3994,"RA_OF_ASC_NODE":351.8356,"ARG_OF_PERICENTER":125.6437,"MEAN_ANOMALY":65.7134,"EPHEMERIS_TYPE":0,"CLASSIFICATION_TYPE":"U","NORAD_CAT_ID":24438,"ELEMENT_SET_NO":999,"REV_AT_EPOCH":10781,"BSTAR":0,"MEAN_MOTION_DOT":1.22e-6,"MEAN_MOTION_DDOT":0},{"OBJECT_NAME":"AFRICASAT-2 (MEASAT-2)","OBJECT_ID":"1996-063B","EPOCH":"2026-03-07T13:58:42.256128","MEAN_MOTION":0.99649258,"ECCENTRICITY":0.00051034,"INCLINATION":12.1061,"RA_OF_ASC_NODE":29.751,"ARG_OF_PERICENTER":215.8978,"MEAN_ANOMALY":201.4068,"EPHEMERIS_TYPE":0,"CLASSIFICATION_TYPE":"U","NORAD_CAT_ID":24653,"ELEMENT_SET_NO":999,"REV_AT_EPOCH":10727,"BSTAR":0,"MEAN_MOTION_DOT":3.0e-7,"MEAN_MOTION_DDOT":0},{"OBJECT_NAME":"INMARSAT 3-F3","OBJECT_ID":"1996-070A","EPOCH":"2026-03-06T18:47:38.740128","MEAN_MOTION":1.00001134,"ECCENTRICITY":0.0006768,"INCLINATION":10.0978,"RA_OF_ASC_NODE":50.6183,"ARG_OF_PERICENTER":272.7022,"MEAN_ANOMALY":272.0845,"EPHEMERIS_TYPE":0,"CLASSIFICATION_TYPE":"U","NORAD_CAT_ID":24674,"ELEMENT_SET_NO":999,"REV_AT_EPOCH":10688,"BSTAR":0,"MEAN_MOTION_DOT":-2.65e-6,"MEAN_MOTION_DDOT":0},{"OBJECT_NAME":"DFH 3-2","OBJECT_ID":"1997-021A","EPOCH":"2026-03-07T14:28:34.823712","MEAN_MOTION":1.00276567,"ECCENTRICITY":0.00035114,"INCLINATION":13.4213,"RA_OF_ASC_NODE":14.5569,"ARG_OF_PERICENTER":93.2566,"MEAN_ANOMALY":41.5224,"EPHEMERIS_TYPE":0,"CLASSIFICATION_TYPE":"U","NORAD_CAT_ID":24798,"ELEMENT_SET_NO":999,"REV_AT_EPOCH":10550,"BSTAR":0,"MEAN_MOTION_DOT":-3.61e-6,"MEAN_MOTION_DDOT":0},{"OBJECT_NAME":"AMC-3","OBJECT_ID":"1997-050A","EPOCH":"2026-03-07T09:06:38.850912","MEAN_MOTION":1.00272815,"ECCENTRICITY":0.00035357,"INCLINATION":7.8967,"RA_OF_ASC_NODE":65.239,"ARG_OF_PERICENTER":293.7746,"MEAN_ANOMALY":230.734,"EPHEMERIS_TYPE":0,"CLASSIFICATION_TYPE":"U","NORAD_CAT_ID":24936,"ELEMENT_SET_NO":999,"REV_AT_EPOCH":5141,"BSTAR":0,"MEAN_MOTION_DOT":-2.63e-6,"MEAN_MOTION_DDOT":0},{"OBJECT_NAME":"USA 134","OBJECT_ID":"1997-065A","EPOCH":"2026-03-06T09:56:38.868000","MEAN_MOTION":1.00271299,"ECCENTRICITY":0.00068881,"INCLINATION":12.6626,"RA_OF_ASC_NODE":22.4831,"ARG_OF_PERICENTER":309.1824,"MEAN_ANOMALY":229.5099,"EPHEMERIS_TYPE":0,"CLASSIFICATION_TYPE":"U","NORAD_CAT_ID":25019,"ELEMENT_SET_NO":999,"REV_AT_EPOCH":3192,"BSTAR":0,"MEAN_MOTION_DOT":-6.6e-7,"MEAN_MOTION_DDOT":0},{"OBJECT_NAME":"KUPON","OBJECT_ID":"1997-070A","EPOCH":"2026-03-07T06:36:25.668576","MEAN_MOTION":1.0028729,"ECCENTRICITY":0.00056129,"INCLINATION":14.5601,"RA_OF_ASC_NODE":355.408,"ARG_OF_PERICENTER":308.9126,"MEAN_ANOMALY":51.0341,"EPHEMERIS_TYPE":0,"CLASSIFICATION_TYPE":"U","NORAD_CAT_ID":25045,"ELEMENT_SET_NO":999,"REV_AT_EPOCH":10362,"BSTAR":0,"MEAN_MOTION_DOT":-2.61e-6,"MEAN_MOTION_DDOT":0},{"OBJECT_NAME":"INDOSTAR 1","OBJECT_ID":"1997-071B","EPOCH":"2026-03-07T00:22:23.380896","MEAN_MOTION":1.00268842,"ECCENTRICITY":0.00049072,"INCLINATION":12.84,"RA_OF_ASC_NODE":20.7949,"ARG_OF_PERICENTER":299.9224,"MEAN_ANOMALY":240.1956,"EPHEMERIS_TYPE":0,"CLASSIFICATION_TYPE":"U","NORAD_CAT_ID":25050,"ELEMENT_SET_NO":999,"REV_AT_EPOCH":10377,"BSTAR":0,"MEAN_MOTION_DOT":1.27e-6,"MEAN_MOTION_DDOT":0},{"OBJECT_NAME":"GALAXY 8 (G-8)","OBJECT_ID":"1997-078A","EPOCH":"2026-03-06T19:29:40.138368","MEAN_MOTION":0.99694444,"ECCENTRICITY":0.00068802,"INCLINATION":13.982,"RA_OF_ASC_NODE":10.6531,"ARG_OF_PERICENTER":18.7126,"MEAN_ANOMALY":151.6557,"EPHEMERIS_TYPE":0,"CLASSIFICATION_TYPE":"U","NORAD_CAT_ID":25086,"ELEMENT_SET_NO":999,"REV_AT_EPOCH":10292,"BSTAR":0,"MEAN_MOTION_DOT":-7.5e-7,"MEAN_MOTION_DDOT":0},{"OBJECT_NAME":"INTELSAT 804 (IS-804)","OBJECT_ID":"1997-083A","EPOCH":"2026-03-07T14:50:54.540384","MEAN_MOTION":1.00260252,"ECCENTRICITY":0.0008944,"INCLINATION":13.0492,"RA_OF_ASC_NODE":18.3828,"ARG_OF_PERICENTER":9.868,"MEAN_ANOMALY":167.5581,"EPHEMERIS_TYPE":0,"CLASSIFICATION_TYPE":"U","NORAD_CAT_ID":25110,"ELEMENT_SET_NO":999,"REV_AT_EPOCH":10331,"BSTAR":0,"MEAN_MOTION_DOT":-6.5e-7,"MEAN_MOTION_DDOT":0},{"OBJECT_NAME":"INMARSAT 3-F5","OBJECT_ID":"1998-006B","EPOCH":"2026-03-06T21:07:16.370112","MEAN_MOTION":1.00275632,"ECCENTRICITY":0.00053148,"INCLINATION":9.4706,"RA_OF_ASC_NODE":54.2625,"ARG_OF_PERICENTER":293.7983,"MEAN_ANOMALY":79.3459,"EPHEMERIS_TYPE":0,"CLASSIFICATION_TYPE":"U","NORAD_CAT_ID":25153,"ELEMENT_SET_NO":999,"REV_AT_EPOCH":10287,"BSTAR":0,"MEAN_MOTION_DOT":-2.92e-6,"MEAN_MOTION_DDOT":0},{"OBJECT_NAME":"UFO 8 (USA 138)","OBJECT_ID":"1998-016A","EPOCH":"2026-03-07T04:22:07.893120","MEAN_MOTION":1.00286849,"ECCENTRICITY":0.0007882,"INCLINATION":11.0075,"RA_OF_ASC_NODE":23.373,"ARG_OF_PERICENTER":272.7475,"MEAN_ANOMALY":85.5824,"EPHEMERIS_TYPE":0,"CLASSIFICATION_TYPE":"U","NORAD_CAT_ID":25258,"ELEMENT_SET_NO":999,"REV_AT_EPOCH":10283,"BSTAR":0,"MEAN_MOTION_DOT":-2.02e-6,"MEAN_MOTION_DDOT":0}]
